GONETS-M 19             
1 46488U 20068C   26155.18853010  .00000038  00000+0  20337-3 0  9999
2 46488  82.4966 355.1618 0014498  75.6400 284.6288 12.42891926257639
DEKART                  
1 46493U 20068H   26154.99250725  .00013133  00000+0  36439-3 0  9997
2 46493  97.8741 163.3210 0007993 343.4126  16.6854 15.37031885313740
NORBI                   
1 46494U 20068J   26155.10099367  .00024360  00000+0  46906-3 0  9999
2 46494  97.8630 169.9181 0004812 314.0137  46.0715 15.47877107314188
SALSAT                  
1 46495U 20068K   26154.99736176  .00008555  00000+0  30076-3 0  9991
2 46495  97.8850 157.2614 0009364 359.9507   0.1729 15.29597840313346
ICEYE-X6                
1 46497U 20068M   26155.22206141  .00002539  00000+0  18634-3 0  9996
2 46497  98.0969 148.2758 0008609 125.4623 234.7406 15.04447182311281
NETSAT-4                
1 46504U 20068U   26154.57661827  .00018989  00000+0  42675-3 0  9996
2 46504  97.8606 161.7287 0005699  30.7472 329.4107 15.43386179313674
NETSAT-3                
1 46505U 20068V   26154.57235990  .00019667  00000+0  45992-3 0  9994
2 46505  97.8653 159.9578 0006067  46.7511 313.4240 15.42183437313582
NETSAT-1                
1 46506U 20068W   26154.50646046  .00014469  00000+0  43777-3 0  9990
2 46506  97.8746 154.3780 0006456  68.9909 291.2022 15.34296018313200
NETSAT-2                
1 46507U 20068X   26154.57013299  .00024586  00000+0  51556-3 0  9991
2 46507  97.8621 161.5679 0005193  62.6477 297.5299 15.45384645313636
TIANQI-6                
1 46810U 20076D   26154.62446986  .00004161  00000+0  27311-3 0  9995
2 46810  34.9978 131.6964 0009424  46.3228 313.8262 15.07086378306532
KSM1-C                  
1 46906U 20081B   26155.21006809  .00008314  00000+0  31438-3 0  9998
2 46906  36.8932 139.0451 0000718 161.2570 198.8206 15.26510745307188
KSM1-D                  
1 46907U 20081C   26155.19467888  .00006541  00000+0  26341-3 0  9991
2 46907  36.8946 147.8978 0003388 173.2802 186.7992 15.24526372307114
KSM1-A                  
1 46912U 20081H   26155.20667280  .00008332  00000+0  32239-3 0  9990
2 46912  36.8942 141.3623 0004230 225.7744 134.2658 15.25742319307194
R2                      
1 46913U 20081J   26152.08134849  .00008820  00000+0  34667-3 0  9993
2 46913  36.8961 160.5241 0006826 158.1099 201.9942 15.25182244309522
KSM1-B                  
1 46914U 20081K   26155.19635064  .00007371  00000+0  29806-3 0  9993
2 46914  36.9003 148.4626 0005444 186.8149 173.2527 15.24321144310202
GONETS-M 20             
1 47227U 20091A   26155.12655097 -.00000057  00000+0 -47912-3 0  9997
2 47227  82.5037 310.5559 0020573 206.5760 153.4267 12.42892830249451
GONETS-M 21             
1 47228U 20091B   26155.18084758  .00000569  00000+0  40363-2 0  9992
2 47228  82.4960 309.2370 0014126 219.8559 140.1485 12.42886395249456
GONETS-M 22             
1 47229U 20091C   26155.15399867 -.00000007  00000+0 -12109-3 0  9997
2 47229  82.5020 310.1465 0021509 201.8300 158.1865 12.42892017249403
CUBEL                   
1 47448U 21006AM  26154.91503497  .00009151  00000+0  22533-3 0  9995
2 47448  97.2338 205.6277 0005850 206.0472 154.0481 15.40795651297711
ARKTIKA-M 1             
1 47719U 21016A   26153.03917935 -.00000200  00000+0  00000+0 0  9993
2 47719  63.2379  59.8266 7283239 269.8643  14.6915  2.00628509 38489
STARLINK-2342           
1 47883U 21021Z   26155.16670139  .01183988  00000+0  87526-2 0  9995
2 47883  53.1541 213.0401 0001617  85.8364 138.7388 15.69868115  5970
GRUS-1B                 
1 47934U 21022C   26155.15975084  .00002448  00000+0  20644-3 0  9998
2 47934  97.5400  38.7842 0016712  13.2074 346.9583 14.98958843283943
UNISAT-7                
1 47945U 21022P   26155.03649609  .00015422  00000+0  38632-3 0  9990
2 47945  97.3901  59.8267 0011118 116.9474 243.2909 15.40095960287837
GLOBAL-9                
1 47971U 21023G   26154.94594889  .00024185  00000+0  48948-3 0  9995
2 47971  44.9824 324.9238 0004941 252.5688 107.4661 15.46052589292896
AII-BRAVO               
1 48270U 21034C   26154.11098173  .00004945  00000+0  36838-3 0  9991
2 48270  97.5600 209.3420 0005036 320.0663  40.0192 15.03352815277504
TYVAK-182A              
1 48271U 21034D   26154.64401793  .00006543  00000+0  45239-3 0  9997
2 48271  97.5726 213.7969 0006261  29.8234 330.3348 15.06036847277796
CSS (TIANHE)            
1 48274U 21035A   26155.11352727  .00025633  00000+0  30785-3 0  9997
2 48274  41.4695  41.5326 0009764 338.4220  21.6207 15.60233359291125
TYVAK-0130              
1 48606U 21041BF  26155.02466515  .00009208  00000+0  35106-3 0  9996
2 48606  52.9942  87.2052 0011253 124.8097 235.3960 15.27369068278376
